{
  "norad_id": 66065,
  "name": "STARLINK-35375",
  "history": [
    {
      "epoch": "2026-03-28T14:42:07.562592",
      "apogee_km": 475.9141525207142,
      "perigee_km": 474.4571361265316,
      "latitude_deg": -44.70634469593319,
      "longitude_deg": 125.30840288009495,
      "semi_major_axis_km": 6853.322644323623,
      "eccentricity": 0.0001063,
      "inclination_deg": 53.1585,
      "raan_deg": 157.7335,
      "arg_perigee_deg": 83.9208,
      "mean_anomaly_deg": 276.1914,
      "mean_motion_rev_day": 15.30209855
    }
  ]
}