{"fetched_at":"2026-03-29T16:36:15Z","count":15609,"tles":[{"name":"STARLINK-35375","line1":"1 66065U 25235H   26087.61258753  .00022390  00000+0  76557-3 0  9998","line2":"2 66065  53.1585 157.7335 0001063  83.9208 276.1914 15.30209855 25817","category":"Starlink"}]}